IRIDIUM 159             
1 43578U 18061K   24273.87099868  .00000566  00000+0  19498-3 0  9996
2 43578  86.3964 318.0443 0002313  94.5333 265.6127 14.34216508323757
IRIDIUM 180             
1 43922U 19002A   24273.94025839  .00000282  00000+0  93669-4 0  9998
2 43922  86.3922 254.8438 0002288  84.0684 276.0772 14.34221687299375
IRIDIUM 176             
1 43923U 19002B   24273.44828364  .00001316  00000+0  20476-3 0  9992
2 43923  86.6049 255.0626 0002705  82.3427 277.8097 14.72257558307187
IRIDIUM 168             
1 43924U 19002C   24273.65484988  .00000057  00000+0  13423-4 0  9992
2 43924  86.3922 255.0232 0002327  87.4631 272.6831 14.34216191299311
IRIDIUM 173             
1 43925U 19002D   24273.71192853  .00000270  00000+0  89241-4 0  9995
2 43925  86.3921 254.9137 0002287  84.6363 275.5094 14.34217590299305
IRIDIUM 169             
1 43926U 19002E   24273.73719081  .00000410  00000+0  12739-3 0  9999
2 43926  86.4167 286.5543 0000979 146.5230 213.6031 14.38610974300302
IRIDIUM 172             
1 43927U 19002F   24273.70558871  .00000002  00000+0 -65170-5 0  9992
2 43927  86.3922 254.9222 0002244  89.1142 271.0310 14.34217834299315
IRIDIUM 175             
1 43928U 19002G   24273.78261732  .00004895  00000+0  77247-3 0  9997
2 43928  86.1524 222.1752 0002331  91.6199 268.5284 14.72223902307220
